SL-3 R/B                
1 19046U 88032B   17291.55561959  .00000052  00000-0  84738-5 0  9998
2 19046  97.5120 334.8164 0037275 274.8202  84.8767 15.02291015590879
SL-16 R/B               
1 19120U 88039B   17291.51087674 -.00000160  00000-0 -53327-4 0  9992
2 19120  71.0151  64.3439 0022229 353.1749   6.9069 14.19176794523614
COSMOS 1953             
1 19210U 88050A   17291.53457550  .00000137  00000-0  74920-5 0  9996
2 19210  82.5144 273.7795 0013066 191.7022 168.3903 15.05389198596398
SL-8 R/B                
1 19257U 88053B   17291.48205781  .00000067  00000-0  31104-4 0  9999
2 19257  74.0503 349.8758 0021039 213.2790 245.5754 14.37377187536204
COSMOS 1975             
1 19573U 88093A   17291.40207126  .00000171  00000-0  10236-4 0  9990
2 19573  82.5217 226.2550 0012868 235.3818 124.6196 15.04294564557195
SL-14 R/B               
1 19574U 88093B   17291.59592135  .00000085  00000-0  73435-5 0  9993
2 19574  82.5352  29.6856 0023118  71.2913   6.6122 14.83238490546652
SL-16 R/B               
1 19650U 88102B   17291.58357339 -.00000235  00000-0 -95346-4 0  9996
2 19650  70.9973 115.6281 0014784 345.8871  14.1837 14.15763331493185
INTERCOSMOS 24          
1 20261U 89080A   17291.50023044  .00000362  00000-0  10200-3 0  9991
2 20261  82.5906 290.0419 1204192 172.3231 189.8315 12.55921136281445
SL-14 R/B               
1 20262U 89080C   17291.31532916  .00000079  00000-0  21312-4 0  9996
2 20262  82.5946 337.2464 1236910 335.9322  18.8369 12.48874702277516
DELTA 1 R/B             
1 20323U 89089B   17291.58915905  .00000064  00000-0  25565-4 0  9993
2 20323  97.1170 218.0221 0073146  53.1215 307.6657 14.48220864452050
DELTA 2 R/B(1)          
1 20453U 90008B   17291.23012988  .00001298  00000-0  77382-4 0  9995
2 20453  35.6241 227.2006 0287019 111.9638 251.1835 14.83639587466489
COSMOS 2058             
1 20465U 90010A   17291.56382274  .00000414  00000-0  33145-4 0  9993
2 20465  82.4871 129.2408 0014277 236.4729 123.5131 14.97595569482694
SL-14 R/B               
1 20466U 90010B   17291.45076829  .00000078  00000-0  69832-5 0  9997
2 20466  82.5019 257.2611 0019113 295.7726  64.1515 14.81298805474689
SL-14 R/B               
1 20511U 90018B   17291.44270071  .00000095  00000-0  94992-5 0  9994
2 20511  82.5258 199.3270 0019000  70.5631  49.0960 14.79956978469196
HST                     
1 20580U 90037B   17291.38586132  .00000651  00000-0  29145-4 0  9997
2 20580  28.4697 273.3876 0002918  62.0010  62.4813 15.08889734308826
SL-16 R/B               
1 20625U 90046B   17291.45807556 -.00000326  00000-0 -14444-3 0  9997
2 20625  70.9985 250.4154 0016856 278.8035  81.1179 14.14620488415011
COSMOS 2084             
1 20663U 90055A   17291.11004012  .00000279  00000-0  40934-4 0  9997
2 20663  62.7919 177.8262 0138435 102.0600 259.6046 14.91688329478135
SL-6 R/B(2)             
1 20666U 90055D   17291.54554839  .00000217  00000-0  36573-4 0  9990
2 20666  62.7833  94.8529 0122869 121.5330 239.7834 14.92018246480118
SL-8 R/B                
1 20775U 90078B   17291.44707023  .00002846  00000-0  14243-3 0  9999
2 20775  82.9265 307.1218 0584944 322.5270  33.6441 14.31318822366405
SL-8 R/B                
1 21088U 91006B   17291.52585941  .00000136  00000-0  12229-3 0  9993
2 21088  82.9388 288.5414 0021966 338.6478 170.8217 13.77072775342577
OKEAN-3                 
1 21397U 91039A   17291.34842115  .00000336  00000-0  30066-4 0  9993
2 21397  82.5250  21.4170 0017976 180.5669 179.5534 14.92561822407090
COSMOS 2151             
1 21422U 91042A   17291.54591769  .00000236  00000-0  20820-4 0  9990
2 21422  82.4980 129.0679 0012902 239.8953 120.0988 14.91876840405815
SL-14 R/B               
1 21423U 91042B   17291.33764145  .00000063  00000-0  52727-5 0  9998
2 21423  82.4966 206.3293 0016912 202.5729 157.4742 14.79709264399752
ERS-1                   
1 21574U 91050A   17291.45792317  .00000046  00000-0  29692-4 0  9994
2 21574  98.4721 236.7276 0032163 308.4934  51.3370 14.37614746375312
ARIANE 40 R/B           
1 21610U 91050F   17291.59918581  .00000035  00000-0  25032-4 0  9995
2 21610  98.5911 348.8238 0002118 304.5201 215.7084 14.40813191377600
INTERCOSMOS 25          
1 21819U 91086A   17291.46023416  .00000929  00000-0  17998-3 0  9998
2 21819  82.5743 348.9471 1522310 184.5630 174.0082 12.04670194127128
SL-14 R/B               
1 21820U 91086B   17291.42620367  .00000098  00000-0  14914-4 0  9997
2 21820  82.5641  45.7856 1577317  17.5513 347.4207 11.93339077121485
SL-8 R/B                
1 21876U 92008B   17291.40568538  .00000026  00000-0  10971-4 0  9992
2 21876  82.9305  25.6287 0035770  51.9445  19.0439 13.75608378288094
SL-8 R/B                
1 21938U 92020B   17291.53837068 -.00000060  00000-0 -77754-4 0  9998
2 21938  82.9271 268.8736 0028517 205.5522 294.0803 13.75252638279947
SL-16 R/B               
1 22220U 92076B   17291.29101140 -.00000048  00000-0 -21534-6 0  9995
2 22220  70.9990 160.1228 0010636  84.2807  44.2131 14.16419757288209
SL-16 R/B               
1 22285U 92093B   17291.52167922  .00000209  00000-0  13234-3 0  9993
2 22285  71.0215 313.5567 0006373 289.4712  70.5722 14.15017536279980
COSMOS 2228             
1 22286U 92094A   17291.46852311  .00000242  00000-0  23556-4 0  9997
2 22286  82.5190 257.8476 0022873  73.6013 286.7716 14.87856073319759
SL-16 R/B               
1 22566U 93016B   17291.28672301 -.00000006  00000-0  21628-4 0  9999
2 22566  71.0064 168.5317 0012158 299.8703  60.1211 14.14947967268679
COSMOS 2242             
1 22626U 93024A   17291.55704660  .00000260  00000-0  25643-4 0  9991
2 22626  82.5191 285.5041 0020613  72.9762 287.3712 14.87718266324195
SL-16 R/B               
1 22803U 93059B   17291.42927800  .00000059  00000-0  53341-4 0  9997
2 22803  70.9917 349.7389 0018139 205.0480 154.9765 14.16779960245484
ARIANE 40 R/B           
1 22830U 93061H   17291.15662850 -.00000025  00000-0  82114-5 0  9996
2 22830  98.8799 309.3463 0009868 290.9849  69.0277 14.31412266255831
COSMOS 2278             
1 23087U 94023A   17291.52917598 -.00000053  00000-0 -30590-5 0  9996
2 23087  71.0502 101.1883 0008049  13.7993 346.3348 14.13747008211686
SL-16 R/B               
1 23088U 94023B   17291.44922516  .00000124  00000-0  89098-4 0  9997
2 23088  71.0017  23.3464 0005489 270.7289  89.3204 14.14656675212705
SL-16 R/B               
1 23343U 94074B   17291.61241157  .00000015  00000-0  96408-5 0  9994
2 23343  98.1404 329.8405 0007796  45.7469 105.9197 14.76712937234837
SL-16 R/B               
1 23405U 94077B   17291.54773246  .00000137  00000-0  95361-4 0  9998
2 23405  70.9822 316.0336 0001979 192.6252 167.4821 14.15197987182966
ERS-2                   
1 23560U 95021A   17291.46211446  .00001583  00000-0  75109-4 0  9994
2 23560  98.5592 300.4482 0002418 233.5197 126.5813 15.21117025194096
ARIANE 40+ R/B          
1 23561U 95021B   17291.45491104  .00000049  00000-0  31783-4 0  9991
2 23561  98.7970 295.5152 0005905 252.1134 234.0331 14.37837324178740
SL-16 R/B               
1 23705U 95058B   17291.09354434  .00000319  00000-0  18863-3 0  9998
2 23705  71.0201 131.1711 0010570 114.7587 245.4637 14.15104021134571
SL-16 R/B               
1 24298U 96051B   17291.23264966 -.00000105  00000-0 -30247-4 0  9992
2 24298  70.8472 162.8046 0015335 349.1257  10.9529 14.12487276 89195
ORBVIEW 2 (SEASTAR)     
1 24883U 97037A   17291.39155575  .00000026  00000-0  25275-4 0  9994
2 24883  98.5500  38.4622 0003497 100.7648 259.3930 14.33415588 69556
SL-16 R/B               
1 25400U 98043G   17291.47675658 -.00000007  00000-0  15020-4 0  9993
2 25400  98.5015 235.8312 0008857 298.9837  61.0455 14.25420519  2409
SL-16 R/B               
1 25407U 98045B   17291.16023849 -.00000273  00000-0 -11490-3 0  9999
2 25407  71.0098 143.0096 0007452   1.9023 358.2127 14.15767301993588
ISS (ZARYA)             
1 25544U 98067A   17291.84665509  .00001531  00000-0  30317-4 0  9991
2 25544  51.6396 141.8704 0005329  36.0061 136.7506 15.54203636 80980
SL-8 R/B                
1 25723U 99022C   17291.28303072  .00007182  00000-0  10717-3 0  9993
2 25723  48.4155 230.2747 0009815 267.0517  92.9305 15.56059418 25339
CZ-4B R/B               
1 25732U 99025C   17291.57060340 -.00000002  00000-0  21040-4 0  9993
2 25732  98.9959 294.8394 0038400 100.0533  52.0189 14.17638490954013
OKEAN-O                 
1 25860U 99039A   17291.54935169  .00000059  00000-0  16167-4 0  9992
2 25860  98.1984 278.1908 0001878  92.1562 267.9862 14.76505686981934
SL-16 R/B               
1 25861U 99039B   17291.56698016  .00000053  00000-0  14708-4 0  9995
2 25861  98.1210 263.8123 0016724  47.9283  87.7361 14.78437800983894
TERRA                   
1 25994U 99068A   17291.32944667  .00000038  00000-0  18475-4 0  9992
2 25994  98.1992   4.5559 0001250  85.4803 274.6528 14.57123601948604
ENVISAT                 
1 27386U 02009A   17291.41475893 -.00000005  00000-0  12065-4 0  9992
2 27386  98.2182 331.4620 0001235  87.2303 272.9027 14.37905674818788
IDEFIX & ARIANE 42P R/B 
1 27422U 02021B   17291.51150296 -.00000024  00000-0  63706-5 0  9995
2 27422  98.2373 285.0134 0011316 227.5694 132.4532 14.29257545806188
AQUA                    
1 27424U 02022A   17291.62619213  .00000140  00000-0  41219-4 0  9991
2 27424  98.2142 231.1258 0002742  85.2884 290.3380 14.57115275822206
CZ-4B R/B               
1 27432U 02024C   17291.58737904 -.00000018  00000-0  13991-4 0  9996
2 27432  99.0034 265.9500 0051261  44.1312  89.6703 14.14051900796158
MIDORI II (ADEOS-II)    
1 27597U 02056A   17291.50253197  .00000062  00000-0  42267-4 0  9998
2 27597  98.3854 255.9196 0001163  33.8688 326.2568 14.27311201773015
H-2A R/B                
1 27601U 02056E   17291.33843713  .00000055  00000-0  35722-4 0  9994
2 27601  98.3638 354.7999 0071001 290.5526 191.1758 14.31803060775433
